[{"OBJECT_NAME":"ONEWEB-0627","OBJECT_ID":"2023-004AE","EPOCH":"2025-12-25T14:58:18.882624","MEAN_MOTION":13.17648778,"ECCENTRICITY":0.0001973,"INCLINATION":87.9093,"RA_OF_ASC_NODE":40.3875,"ARG_OF_PERICENTER":115.1985,"MEAN_ANOMALY":244.9351,"EPHEMERIS_TYPE":0,"CLASSIFICATION_TYPE":"U","NORAD_CAT_ID":55168,"ELEMENT_SET_NO":999,"REV_AT_EPOCH":14472,"BSTAR":-0.00015515,"MEAN_MOTION_DOT":-4.7e-7,"MEAN_MOTION_DDOT":0},{"OBJECT_NAME":"ONEWEB-0628","OBJECT_ID":"2023-004AF","EPOCH":"2025-12-25T14:01:24.262176","MEAN_MOTION":13.12441578,"ECCENTRICITY":0.0002273,"INCLINATION":87.8935,"RA_OF_ASC_NODE":25.1316,"ARG_OF_PERICENTER":109.5085,"MEAN_ANOMALY":250.6289,"EPHEMERIS_TYPE":0,"CLASSIFICATION_TYPE":"U","NORAD_CAT_ID":55169,"ELEMENT_SET_NO":999,"REV_AT_EPOCH":14526,"BSTAR":-4.383e-5,"MEAN_MOTION_DOT":-3.0e-8,"MEAN_MOTION_DDOT":0},{"OBJECT_NAME":"ONEWEB-0629","OBJECT_ID":"2023-004AG","EPOCH":"2025-12-25T14:23:04.431840","MEAN_MOTION":13.17644322,"ECCENTRICITY":0.0002156,"INCLINATION":87.9093,"RA_OF_ASC_NODE":40.3898,"ARG_OF_PERICENTER":97.3579,"MEAN_ANOMALY":262.7798,"EPHEMERIS_TYPE":0,"CLASSIFICATION_TYPE":"U","NORAD_CAT_ID":55170,"ELEMENT_SET_NO":999,"REV_AT_EPOCH":14472,"BSTAR":-0.0010092,"MEAN_MOTION_DOT":-3.79e-6,"MEAN_MOTION_DDOT":0},{"OBJECT_NAME":"ONEWEB-0631","OBJECT_ID":"2023-004AH","EPOCH":"2025-12-25T11:53:47.975424","MEAN_MOTION":13.18688112,"ECCENTRICITY":0.0001249,"INCLINATION":87.918,"RA_OF_ASC_NODE":9.9254,"ARG_OF_PERICENTER":99.6106,"MEAN_ANOMALY":260.5167,"EPHEMERIS_TYPE":0,"CLASSIFICATION_TYPE":"U","NORAD_CAT_ID":55171,"ELEMENT_SET_NO":999,"REV_AT_EPOCH":14678,"BSTAR":-0.00020224,"MEAN_MOTION_DOT":-6.7e-7,"MEAN_MOTION_DDOT":0},{"OBJECT_NAME":"ONEWEB-0709","OBJECT_ID":"2023-004AJ","EPOCH":"2025-12-25T16:55:53.688000","MEAN_MOTION":13.11413106,"ECCENTRICITY":9.6e-5,"INCLINATION":87.884,"RA_OF_ASC_NODE":55.6303,"ARG_OF_PERICENTER":84.7925,"MEAN_ANOMALY":275.3312,"EPHEMERIS_TYPE":0,"CLASSIFICATION_TYPE":"U","NORAD_CAT_ID":55172,"ELEMENT_SET_NO":999,"REV_AT_EPOCH":14313,"BSTAR":0.00050299,"MEAN_MOTION_DOT":1.91e-6,"MEAN_MOTION_DDOT":0},{"OBJECT_NAME":"ONEWEB-0710","OBJECT_ID":"2023-004AK","EPOCH":"2025-12-25T14:43:44.004864","MEAN_MOTION":13.17648647,"ECCENTRICITY":0.0001819,"INCLINATION":87.9097,"RA_OF_ASC_NODE":40.3814,"ARG_OF_PERICENTER":104.0858,"MEAN_ANOMALY":256.0475,"EPHEMERIS_TYPE":0,"CLASSIFICATION_TYPE":"U","NORAD_CAT_ID":55173,"ELEMENT_SET_NO":999,"REV_AT_EPOCH":14472,"BSTAR":-1.6908e-5,"MEAN_MOTION_DOT":6.0e-8,"MEAN_MOTION_DDOT":0},{"OBJECT_NAME":"ONEWEB-0711","OBJECT_ID":"2023-004AL","EPOCH":"2025-12-25T12:34:41.369088","MEAN_MOTION":13.11419996,"ECCENTRICITY":0.0002138,"INCLINATION":87.8853,"RA_OF_ASC_NODE":55.6412,"ARG_OF_PERICENTER":124.033,"MEAN_ANOMALY":236.1001,"EPHEMERIS_TYPE":0,"CLASSIFICATION_TYPE":"U","NORAD_CAT_ID":55174,"ELEMENT_SET_NO":999,"REV_AT_EPOCH":14307,"BSTAR":0.0007747,"MEAN_MOTION_DOT":2.87e-6,"MEAN_MOTION_DDOT":0},{"OBJECT_NAME":"ONEWEB-0713","OBJECT_ID":"2023-004AM","EPOCH":"2025-12-25T16:41:15.622080","MEAN_MOTION":13.11414556,"ECCENTRICITY":0.0001929,"INCLINATION":87.8846,"RA_OF_ASC_NODE":55.6092,"ARG_OF_PERICENTER":114.4557,"MEAN_ANOMALY":245.6772,"EPHEMERIS_TYPE":0,"CLASSIFICATION_TYPE":"U","NORAD_CAT_ID":55175,"ELEMENT_SET_NO":999,"REV_AT_EPOCH":14308,"BSTAR":0.0014129,"MEAN_MOTION_DOT":5.13e-6,"MEAN_MOTION_DDOT":0},{"OBJECT_NAME":"ONEWEB-0715","OBJECT_ID":"2023-004AN","EPOCH":"2025-12-25T16:33:56.066400","MEAN_MOTION":13.11415481,"ECCENTRICITY":0.0001071,"INCLINATION":87.8847,"RA_OF_ASC_NODE":55.6109,"ARG_OF_PERICENTER":108.9362,"MEAN_ANOMALY":251.1882,"EPHEMERIS_TYPE":0,"CLASSIFICATION_TYPE":"U","NORAD_CAT_ID":55176,"ELEMENT_SET_NO":999,"REV_AT_EPOCH":14312,"BSTAR":0.0015349,"MEAN_MOTION_DOT":5.57e-6,"MEAN_MOTION_DDOT":0},{"OBJECT_NAME":"ONEWEB-0716","OBJECT_ID":"2023-004AP","EPOCH":"2025-12-25T14:33:59.830272","MEAN_MOTION":13.17650268,"ECCENTRICITY":0.0001914,"INCLINATION":87.9097,"RA_OF_ASC_NODE":40.383,"ARG_OF_PERICENTER":90.9211,"MEAN_ANOMALY":269.214,"EPHEMERIS_TYPE":0,"CLASSIFICATION_TYPE":"U","NORAD_CAT_ID":55177,"ELEMENT_SET_NO":999,"REV_AT_EPOCH":14472,"BSTAR":-0.00011815,"MEAN_MOTION_DOT":-3.3e-7,"MEAN_MOTION_DDOT":0},{"OBJECT_NAME":"ONEWEB-0717","OBJECT_ID":"2023-004AQ","EPOCH":"2025-12-25T15:59:02.124384","MEAN_MOTION":13.17650787,"ECCENTRICITY":0.0001868,"INCLINATION":87.9108,"RA_OF_ASC_NODE":40.3429,"ARG_OF_PERICENTER":120.1974,"MEAN_ANOMALY":239.9343,"EPHEMERIS_TYPE":0,"CLASSIFICATION_TYPE":"U","NORAD_CAT_ID":55178,"ELEMENT_SET_NO":999,"REV_AT_EPOCH":14478,"BSTAR":-6.4526e-5,"MEAN_MOTION_DOT":-1.2e-7,"MEAN_MOTION_DDOT":0},{"OBJECT_NAME":"ONEWEB-0719","OBJECT_ID":"2023-004AR","EPOCH":"2025-12-25T12:34:56.790624","MEAN_MOTION":13.17648897,"ECCENTRICITY":0.0002015,"INCLINATION":87.9107,"RA_OF_ASC_NODE":40.3537,"ARG_OF_PERICENTER":95.7251,"MEAN_ANOMALY":264.411,"EPHEMERIS_TYPE":0,"CLASSIFICATION_TYPE":"U","NORAD_CAT_ID":55179,"ELEMENT_SET_NO":999,"REV_AT_EPOCH":14471,"BSTAR":-1.3491e-5,"MEAN_MOTION_DOT":8.0e-8,"MEAN_MOTION_DDOT":0},{"OBJECT_NAME":"ONEWEB-0530","OBJECT_ID":"2023-029A","EPOCH":"2025-12-25T07:18:17.915328","MEAN_MOTION":13.20771089,"ECCENTRICITY":0.0001994,"INCLINATION":87.921,"RA_OF_ASC_NODE":309.1628,"ARG_OF_PERICENTER":94.5131,"MEAN_ANOMALY":265.623,"EPHEMERIS_TYPE":0,"CLASSIFICATION_TYPE":"U","NORAD_CAT_ID":55796,"ELEMENT_SET_NO":999,"REV_AT_EPOCH":13819,"BSTAR":0.0002152,"MEAN_MOTION_DOT":1.0e-6,"MEAN_MOTION_DDOT":0},{"OBJECT_NAME":"ONEWEB-0534","OBJECT_ID":"2023-029B","EPOCH":"2025-12-25T19:43:45.655680","MEAN_MOTION":13.20769904,"ECCENTRICITY":0.0001898,"INCLINATION":87.9215,"RA_OF_ASC_NODE":309.06,"ARG_OF_PERICENTER":76.8631,"MEAN_ANOMALY":283.2714,"EPHEMERIS_TYPE":0,"CLASSIFICATION_TYPE":"U","NORAD_CAT_ID":55797,"ELEMENT_SET_NO":999,"REV_AT_EPOCH":13826,"BSTAR":0.00022385,"MEAN_MOTION_DOT":1.04e-6,"MEAN_MOTION_DDOT":0},{"OBJECT_NAME":"ONEWEB-0556","OBJECT_ID":"2023-029C","EPOCH":"2025-12-25T19:52:49.935936","MEAN_MOTION":13.20772958,"ECCENTRICITY":0.0002793,"INCLINATION":87.9215,"RA_OF_ASC_NODE":309.059,"ARG_OF_PERICENTER":79.3178,"MEAN_ANOMALY":280.8269,"EPHEMERIS_TYPE":0,"CLASSIFICATION_TYPE":"U","NORAD_CAT_ID":55798,"ELEMENT_SET_NO":999,"REV_AT_EPOCH":13826,"BSTAR":7.2651e-5,"MEAN_MOTION_DOT":4.3e-7,"MEAN_MOTION_DDOT":0},{"OBJECT_NAME":"ONEWEB-0562","OBJECT_ID":"2023-029D","EPOCH":"2025-12-25T19:34:40.411200","MEAN_MOTION":13.20771607,"ECCENTRICITY":0.0002465,"INCLINATION":87.9211,"RA_OF_ASC_NODE":309.0434,"ARG_OF_PERICENTER":96.5264,"MEAN_ANOMALY":263.6149,"EPHEMERIS_TYPE":0,"CLASSIFICATION_TYPE":"U","NORAD_CAT_ID":55799,"ELEMENT_SET_NO":999,"REV_AT_EPOCH":13826,"BSTAR":0.00022071,"MEAN_MOTION_DOT":1.03e-6,"MEAN_MOTION_DDOT":0},{"OBJECT_NAME":"ONEWEB-0563","OBJECT_ID":"2023-029E","EPOCH":"2025-12-25T19:25:34.860000","MEAN_MOTION":13.20769837,"ECCENTRICITY":0.0001987,"INCLINATION":87.9218,"RA_OF_ASC_NODE":309.0727,"ARG_OF_PERICENTER":73.9713,"MEAN_ANOMALY":286.164,"EPHEMERIS_TYPE":0,"CLASSIFICATION_TYPE":"U","NORAD_CAT_ID":55800,"ELEMENT_SET_NO":999,"REV_AT_EPOCH":13825,"BSTAR":0.00031887,"MEAN_MOTION_DOT":1.43e-6,"MEAN_MOTION_DDOT":0}]
