ONEWEB-0627             
1 55168U 23004AE  25359.62382966 -.00000047  00000+0 -15515-3 0  9992
2 55168  87.9093  40.3875 0001973 115.1985 244.9351 13.17648778144728
ONEWEB-0628             
1 55169U 23004AF  25359.58430859 -.00000003  00000+0 -43830-4 0  9997
2 55169  87.8935  25.1316 0002273 109.5085 250.6289 13.12441578145264
ONEWEB-0629             
1 55170U 23004AG  25359.59935685 -.00000379  00000+0 -10092-2 0  9995
2 55170  87.9093  40.3898 0002156  97.3579 262.7798 13.17644322144724
ONEWEB-0631             
1 55171U 23004AH  25359.49569416 -.00000067  00000+0 -20224-3 0  9993
2 55171  87.9180   9.9254 0001249  99.6106 260.5167 13.18688112146782
ONEWEB-0709             
1 55172U 23004AJ  25359.70548250  .00000191  00000+0  50299-3 0  9992
2 55172  87.8840  55.6303 0000960  84.7925 275.3312 13.11413106143135
ONEWEB-0710             
1 55173U 23004AK  25359.61370376  .00000006  00000+0 -16908-4 0  9991
2 55173  87.9097  40.3814 0001819 104.0858 256.0475 13.17648647144722
ONEWEB-0711             
1 55174U 23004AL  25359.52408992  .00000287  00000+0  77470-3 0  9998
2 55174  87.8853  55.6412 0002138 124.0330 236.1001 13.11419996143075
ONEWEB-0713             
1 55175U 23004AM  25359.69531970  .00000513  00000+0  14129-2 0  9993
2 55175  87.8846  55.6092 0001929 114.4557 245.6772 13.11414556143081
ONEWEB-0715             
1 55176U 23004AN  25359.69023225  .00000557  00000+0  15349-2 0  9996
2 55176  87.8847  55.6109 0001071 108.9362 251.1882 13.11415481143129
ONEWEB-0716             
1 55177U 23004AP  25359.60694248 -.00000033  00000+0 -11815-3 0  9993
2 55177  87.9097  40.3830 0001914  90.9211 269.2140 13.17650268144723
ONEWEB-0717             
1 55178U 23004AQ  25359.66599681 -.00000012  00000+0 -64526-4 0  9990
2 55178  87.9108  40.3429 0001868 120.1974 239.9343 13.17650787144782
ONEWEB-0719             
1 55179U 23004AR  25359.52426841  .00000008  00000+0 -13491-4 0  9992
2 55179  87.9107  40.3537 0002015  95.7251 264.4110 13.17648897144719
ONEWEB-0530             
1 55796U 23029A   25359.30437402  .00000100  00000+0  21520-3 0  9998
2 55796  87.9210 309.1628 0001994  94.5131 265.6230 13.20771089138190
ONEWEB-0534             
1 55797U 23029B   25359.82205620  .00000104  00000+0  22385-3 0  9995
2 55797  87.9215 309.0600 0001898  76.8631 283.2714 13.20769904138260
ONEWEB-0556             
1 55798U 23029C   25359.82835574  .00000043  00000+0  72651-4 0  9997
2 55798  87.9215 309.0590 0002793  79.3178 280.8269 13.20772958138269
ONEWEB-0562             
1 55799U 23029D   25359.81574550  .00000103  00000+0  22071-3 0  9998
2 55799  87.9211 309.0434 0002465  96.5264 263.6149 13.20771607138262
ONEWEB-0563             
1 55800U 23029E   25359.80943125  .00000143  00000+0  31887-3 0  9997
2 55800  87.9218 309.0727 0001987  73.9713 286.1640 13.20769837138250
